FENGYUN 1C DEB          
1 31773U 99025CFY 17345.26702307  .00000587  00000-0  21015-3 0  9995
2 31773  98.9842 143.3522 0072979 233.3362 126.1100 14.36534803550243
